KZ-11 R/B               
1 69628U 26138H   26190.27434562  .00775234  96631-5  79362-3 0  9990
2 69628  55.1537 184.1327 0399368 134.6169 228.8180 15.37395534  3336
CENTISPACE-1 GROUP 05 O*
1 69636U 26138J   26190.73346690 -.00000351  00000+0 -10012-3 0  9993
2 69636  55.1383 197.8655 0009229 332.7035  27.3454 14.15843581  3180
VICTUS HAZE PUMA        
1 69646U 26142A   26190.85004228  .00002720  00000+0  12552-3 0  9991
2 69646  97.4474  88.2154 0025130 285.7775  74.0690 15.20823924  3115
HOKUSHIN-1              
1 69648U 98067YH  26190.04264495  .00016252  00000+0  28392-3 0  9997
2 69648  51.6309 191.7619 0006089 307.2335  52.8098 15.50799084  3046
STARLINK-37656          
1 69649U 26143A   26190.83335647  .00001581  00000+0  30738-4 0  9996
2 69649  97.2860 234.6654 0001049  84.5829 153.2456 15.49182525  4101
STARLINK-37646          
1 69650U 26143B   26190.83335647 -.02527650  00000+0 -35789-1 0  9990
2 69650  97.2858 234.8268 0001980  89.2730 157.3017 15.60178423  4103
STARLINK-37749          
1 69651U 26143C   26190.83335647 -.02540600  00000+0 -40987-1 0  9997
2 69651  97.2859 234.8154 0001912  96.6030 134.9442 15.56764055  4109
STARLINK-37819          
1 69652U 26143D   26190.83335647 -.02713169  00000+0 -43433-1 0  9999
2 69652  97.2860 234.7894 0001961  76.2281  92.3630 15.56589119  4100
STARLINK-37729          
1 69653U 26143E   26190.83335647  .00030516  00000+0  14771-3 0  9999
2 69653  97.2836 234.9123 0001032 181.3773 269.1059 15.82486423  4106
STARLINK-37838          
1 69654U 26143F   26190.83335647 -.02506912  00000+0 -32644-1 0  9999
2 69654  97.2847 234.8460 0001779 106.3229 189.5664 15.62305955  4108
STARLINK-37884          
1 69655U 26143G   26190.83335647  .00002170  00000+0  41594-4 0  9990
2 69655  97.2856 234.7769 0001184  78.4895  60.8413 15.49159184  4107
STARLINK-37876          
1 69656U 26143H   26190.83335647 -.02496634  00000+0 -34467-1 0  9995
2 69656  97.2855 234.8504 0001946  99.9125 205.1744 15.60785129  4002
STARLINK-37784          
1 69657U 26143J   26190.83335647 -.02680924  00000+0 -47743-1 0  9994
2 69657  97.2860 234.7922 0001929  78.7753  95.8880 15.53660866  4002
STARLINK-37851          
1 69658U 26143K   26190.83335647 -.02471206  00000+0 -36591-1 0  9995
2 69658  97.2853 234.8501 0001973 107.6818 197.9202 15.58919751  3996
STARLINK-37229          
1 69659U 26143L   26190.83335647 -.02881675  00000+0 -47575-1 0  9995
2 69659  97.2855 234.8065 0002329 100.5639 113.2552 15.55990043  4049
STARLINK-37556          
1 69660U 26143M   26190.83335647 -.02526579  00000+0 -36899-1 0  9993
2 69660  97.2853 234.8313 0001997  91.6820 166.6297 15.59369512  4040
STARLINK-37867          
1 69661U 26143N   26190.83335647 -.02478109  00000+0 -36812-1 0  9994
2 69661  97.2851 234.8517 0001756  92.6578 211.8670 15.58848582  4001
STARLINK-37852          
1 69662U 26143P   26190.83335647 -.02612167  00000+0 -44754-1 0  9993
2 69662  97.2857 234.7822 0001933  87.5902  60.8297 15.54620713  4004
STARLINK-37554          
1 69663U 26143Q   26190.83335647 -.02459769  00000+0 -38967-1 0  9990
2 69663  97.2856 234.8288 0001904 101.9232 155.7812 15.57116275  4043
STARLINK-37830          
1 69664U 26143R   26190.83335647 -.02307434  00000+0 -41565-1 0  9990
2 69664  97.2860 234.8039 0002343  87.7785 103.9347 15.53389711  3999
STARLINK-37837          
1 69665U 26143S   26190.83335647 -.02496488  00000+0 -35897-1 0  9990
2 69665  97.2856 234.8452 0001825  93.7685 201.9446 15.59729086  4005
STARLINK-37943          
1 69666U 26143T   26190.83335647 -.02789146  00000+0 -47612-1 0  9995
2 69666  97.2852 234.7980 0002140  85.9979 104.7665 15.54961857  4009
STARLINK-37941          
1 69667U 26143U   26190.83335647 -.02478569  00000+0 -39885-1 0  9993
2 69667  97.2857 234.8282 0002111  91.0436 161.9378 15.56726746  4009
STARLINK-37930          
1 69668U 26143V   26190.83335647 -.02510774  00000+0 -36878-1 0  9998
2 69668  97.2856 234.8204 0001750 119.9307 121.9551 15.59197450  3991
STARLINK-37945          
1 69669U 26143W   26190.83335647 -.02452666  00000+0 -36100-1 0  9992
2 69669  97.2850 234.8547 0001847  97.4617 216.8104 15.59048784  4003
STARLINK-37948          
1 69670U 26143X   26190.83335647  .00009185  00000+0  17042-3 0  9990
2 69670  97.2862 234.7551 0000853  97.4630 341.8073 15.49178230  4006
STARLINK-37949          
1 69671U 26143Y   26190.83335647 -.03014675  00000+0 -57138-1 0  9994
2 69671  97.2854 234.8121 0001630  95.5853 116.9104 15.52434305  4000
STARLINK-37946          
1 69672U 26143Z   26190.83335647 -.02579941  00000+0 -43115-1 0  9996
2 69672  97.2857 234.8379 0002120 101.9852 178.8883 15.55250199  4006
TJS-26A                 
1 69674U 26144A   26190.87529815 -.00000334  00000+0  00000+0 0  9991
2 69674   6.9580 323.2276 0003511 344.6022  42.5948  1.00266016   170
CZ-7A R/B               
1 69675U 26144B   26190.22853561  .00549978 -72778-6  67981-3 0  9994
2 69675  19.4615 317.8147 7147024 191.6298 132.9685  2.52606374   417
