OBJECT_NAME,OBJECT_ID,EPOCH,MEAN_MOTION,ECCENTRICITY,INCLINATION,RA_OF_ASC_NODE,ARG_OF_PERICENTER,MEAN_ANOMALY,EPHEMERIS_TYPE,CLASSIFICATION_TYPE,NORAD_CAT_ID,ELEMENT_SET_NO,REV_AT_EPOCH,BSTAR,MEAN_MOTION_DOT,MEAN_MOTION_DDOT
KZ-11 R/B,2026-138H,2026-07-09T06:35:03.461568,15.37395534,.03993682,55.1537,184.1327,134.6169,228.8180,0,U,69628,999,333,.79361587E-3,.775234E-2,.9663144E-5
CENTISPACE-1 GROUP 05 OBJECT J,2026-138J,2026-07-09T17:36:11.540160,14.15843581,.0009229,55.1383,197.8655,332.7035,27.3454,0,U,69636,999,318,-.10012E-3,-.351E-5,0
VICTUS HAZE PUMA,2026-142A,2026-07-09T20:24:03.652992,15.20823924,.002513,97.4474,88.2154,285.7775,74.0690,0,U,69646,999,311,.12552E-3,.272E-4,0
HOKUSHIN-1,1998-067YH,2026-07-09T01:01:24.523680,15.50799084,.00060895,51.6309,191.7619,307.2335,52.8098,0,U,69648,999,304,.28392388E-3,.16252E-3,0
STARLINK-37656,2026-143A,2026-07-09T20:00:01.999008,15.49182525,.0001049,97.2860,234.6654,84.5829,153.2456,0,U,69649,999,410,.30738E-4,.1581E-4,0
STARLINK-37646,2026-143B,2026-07-09T20:00:01.999008,15.60178423,.000198,97.2858,234.8268,89.2730,157.3017,0,U,69650,999,410,-.35789E-1,-.252765E-1,0
STARLINK-37749,2026-143C,2026-07-09T20:00:01.999008,15.56764055,.0001912,97.2859,234.8154,96.6030,134.9442,0,U,69651,999,410,-.40987E-1,-.25406E-1,0
STARLINK-37819,2026-143D,2026-07-09T20:00:01.999008,15.56589119,.0001961,97.2860,234.7894,76.2281,92.3630,0,U,69652,999,410,-.43433E-1,-.2713169E-1,0
STARLINK-37729,2026-143E,2026-07-09T20:00:01.999008,15.82486423,.0001032,97.2836,234.9123,181.3773,269.1059,0,U,69653,999,410,.14771E-3,.30516E-3,0
STARLINK-37838,2026-143F,2026-07-09T20:00:01.999008,15.62305955,.0001779,97.2847,234.8460,106.3229,189.5664,0,U,69654,999,410,-.32644E-1,-.2506912E-1,0
STARLINK-37884,2026-143G,2026-07-09T20:00:01.999008,15.49159184,.0001184,97.2856,234.7769,78.4895,60.8413,0,U,69655,999,410,.41594E-4,.217E-4,0
STARLINK-37876,2026-143H,2026-07-09T20:00:01.999008,15.60785129,.0001946,97.2855,234.8504,99.9125,205.1744,0,U,69656,999,400,-.34467E-1,-.2496634E-1,0
STARLINK-37784,2026-143J,2026-07-09T20:00:01.999008,15.53660866,.0001929,97.2860,234.7922,78.7753,95.8880,0,U,69657,999,400,-.47743E-1,-.2680924E-1,0
STARLINK-37851,2026-143K,2026-07-09T20:00:01.999008,15.58919751,.0001973,97.2853,234.8501,107.6818,197.9202,0,U,69658,999,399,-.36591E-1,-.2471206E-1,0
STARLINK-37229,2026-143L,2026-07-09T20:00:01.999008,15.55990043,.0002329,97.2855,234.8065,100.5639,113.2552,0,U,69659,999,404,-.47575E-1,-.2881675E-1,0
STARLINK-37556,2026-143M,2026-07-09T20:00:01.999008,15.59369512,.0001997,97.2853,234.8313,91.6820,166.6297,0,U,69660,999,404,-.36899E-1,-.2526579E-1,0
STARLINK-37867,2026-143N,2026-07-09T20:00:01.999008,15.58848582,.0001756,97.2851,234.8517,92.6578,211.8670,0,U,69661,999,400,-.36812E-1,-.2478109E-1,0
STARLINK-37852,2026-143P,2026-07-09T20:00:01.999008,15.54620713,.0001933,97.2857,234.7822,87.5902,60.8297,0,U,69662,999,400,-.44754E-1,-.2612167E-1,0
STARLINK-37554,2026-143Q,2026-07-09T20:00:01.999008,15.57116275,.0001904,97.2856,234.8288,101.9232,155.7812,0,U,69663,999,404,-.38967E-1,-.2459769E-1,0
STARLINK-37830,2026-143R,2026-07-09T20:00:01.999008,15.53389711,.0002343,97.2860,234.8039,87.7785,103.9347,0,U,69664,999,399,-.41565E-1,-.2307434E-1,0
STARLINK-37837,2026-143S,2026-07-09T20:00:01.999008,15.59729086,.0001825,97.2856,234.8452,93.7685,201.9446,0,U,69665,999,400,-.35897E-1,-.2496488E-1,0
STARLINK-37943,2026-143T,2026-07-09T20:00:01.999008,15.54961857,.000214,97.2852,234.7980,85.9979,104.7665,0,U,69666,999,400,-.47612E-1,-.2789146E-1,0
STARLINK-37941,2026-143U,2026-07-09T20:00:01.999008,15.56726746,.0002111,97.2857,234.8282,91.0436,161.9378,0,U,69667,999,400,-.39885E-1,-.2478569E-1,0
STARLINK-37930,2026-143V,2026-07-09T20:00:01.999008,15.59197450,.000175,97.2856,234.8204,119.9307,121.9551,0,U,69668,999,399,-.36878E-1,-.2510774E-1,0
STARLINK-37945,2026-143W,2026-07-09T20:00:01.999008,15.59048784,.0001847,97.2850,234.8547,97.4617,216.8104,0,U,69669,999,400,-.361E-1,-.2452666E-1,0
STARLINK-37948,2026-143X,2026-07-09T20:00:01.999008,15.49178230,.0000853,97.2862,234.7551,97.4630,341.8073,0,U,69670,999,400,.17042E-3,.9185E-4,0
STARLINK-37949,2026-143Y,2026-07-09T20:00:01.999008,15.52434305,.000163,97.2854,234.8121,95.5853,116.9104,0,U,69671,999,400,-.57138E-1,-.3014675E-1,0
STARLINK-37946,2026-143Z,2026-07-09T20:00:01.999008,15.55250199,.000212,97.2857,234.8379,101.9852,178.8883,0,U,69672,999,400,-.43115E-1,-.2579941E-1,0
TJS-26A,2026-144A,2026-07-09T21:00:25.760160,1.00266016,.0003511,6.9580,323.2276,344.6022,42.5948,0,U,69674,999,17,0,-.334E-5,0
CZ-7A R/B,2026-144B,2026-07-09T05:29:05.476704,2.52606374,.71470242,19.4615,317.8147,191.6298,132.9685,0,U,69675,999,41,.67980978E-3,.549978E-2,-.727776E-6
